SENTINEL-6              
1 46984U 20086A   23321.94316558 -.00000048  00000+0  55719-4 0  9992
2 46984  66.0408 292.1011 0007896 268.7289  91.2822 12.80931309139648
